[{"OBJECT_NAME":"OBJECT J","OBJECT_ID":"2023-085J","EPOCH":"2026-03-09T22:47:59.920512","MEAN_MOTION":15.31507187,"ECCENTRICITY":0.00067028,"INCLINATION":97.4828,"RA_OF_ASC_NODE":180.1819,"ARG_OF_PERICENTER":41.7877,"MEAN_ANOMALY":318.3875,"EPHEMERIS_TYPE":0,"CLASSIFICATION_TYPE":"U","NORAD_CAT_ID":57012,"ELEMENT_SET_NO":999,"REV_AT_EPOCH":15156,"BSTAR":0.00064525349,"MEAN_MOTION_DOT":0.00019595,"MEAN_MOTION_DDOT":0},{"OBJECT_NAME":"STARLINK-34173","OBJECT_ID":"2025-113AC","EPOCH":"2026-03-09T06:56:50.123328","MEAN_MOTION":15.30190549,"ECCENTRICITY":0.00012565,"INCLINATION":53.1578,"RA_OF_ASC_NODE":93.001,"ARG_OF_PERICENTER":99.243,"MEAN_ANOMALY":260.8713,"EPHEMERIS_TYPE":0,"CLASSIFICATION_TYPE":"U","NORAD_CAT_ID":64196,"ELEMENT_SET_NO":999,"REV_AT_EPOCH":4500,"BSTAR":0.00040088068,"MEAN_MOTION_DOT":0.00011529,"MEAN_MOTION_DDOT":0}]
